{
    "links": {
        "self": "http://www.neowsapp.com/rest/v1/neo/3747355?api_key=iIulBulltgU6a56xZRHN4H3l9WmuAYTsLGpBGhQ2"
    },
    "id": "3747355",
    "neo_reference_id": "3747355",
    "name": "(2016 EJ158)",
    "designation": "2016 EJ158",
    "nasa_jpl_url": "http://ssd.jpl.nasa.gov/sbdb.cgi?sstr=3747355",
    "absolute_magnitude_h": 25.8,
    "estimated_diameter": {
        "kilometers": {
            "estimated_diameter_min": 0.0183888672,
            "estimated_diameter_max": 0.0411187571
        },
        "meters": {
            "estimated_diameter_min": 18.388867207,
            "estimated_diameter_max": 41.1187571041
        },
        "miles": {
            "estimated_diameter_min": 0.0114263088,
            "estimated_diameter_max": 0.0255500032
        },
        "feet": {
            "estimated_diameter_min": 60.3309310875,
            "estimated_diameter_max": 134.9040630575
        }
    },
    "is_potentially_hazardous_asteroid": false,
    "close_approach_data": [
        {
            "close_approach_date": "2016-03-24",
            "close_approach_date_full": "2016-Mar-24 14:46",
            "epoch_date_close_approach": 1458830760000,
            "relative_velocity": {
                "kilometers_per_second": "7.8613770711",
                "kilometers_per_hour": "28300.957455887",
                "miles_per_hour": "17585.1143702982"
            },
            "miss_distance": {
                "astronomical": "0.0598673782",
                "lunar": "23.2884101198",
                "kilometers": "8956032.261204434",
                "miles": "5565020.3936878292"
            },
            "orbiting_body": "Earth"
        }
    ],
    "orbital_data": {
        "orbit_id": "4",
        "orbit_determination_date": "2017-04-06 08:27:24",
        "first_observation_date": "2016-03-14",
        "last_observation_date": "2016-03-18",
        "data_arc_in_days": 4,
        "observations_used": 28,
        "orbit_uncertainty": "8",
        "minimum_orbit_intersection": ".0296228",
        "jupiter_tisserand_invariant": "3.780",
        "epoch_osculation": "2457463.5",
        "eccentricity": ".4676419771044752",
        "semi_major_axis": "1.920617573302738",
        "inclination": "4.166628202340579",
        "ascending_node_longitude": "4.029915334663289",
        "orbital_period": "972.2093069665107",
        "perihelion_distance": "1.022456174061846",
        "perihelion_argument": "200.7395426620424",
        "aphelion_distance": "2.818778972543629",
        "perihelion_time": "2457488.034034933706",
        "mean_anomaly": "350.9152766664078",
        "mean_motion": ".3702906333238803",
        "equinox": "J2000",
        "orbit_class": {
            "orbit_class_type": "AMO",
            "orbit_class_description": "Near-Earth asteroid orbits similar to that of 1221 Amor",
            "orbit_class_range": "1.017 AU < q (perihelion) < 1.3 AU"
        }
    },
    "is_sentry_object": false
}